[{"OBJECT_NAME":"FLOCK 4H-3","OBJECT_ID":"2025-276AS","EPOCH":"2026-03-09T22:45:50.100192","MEAN_MOTION":15.18704804,"ECCENTRICITY":0.00037272,"INCLINATION":97.4304,"RA_OF_ASC_NODE":144.2438,"ARG_OF_PERICENTER":9.3748,"MEAN_ANOMALY":350.7555,"EPHEMERIS_TYPE":0,"CLASSIFICATION_TYPE":"U","NORAD_CAT_ID":66706,"ELEMENT_SET_NO":999,"REV_AT_EPOCH":1535,"BSTAR":0.00044066638,"MEAN_MOTION_DOT":9.081e-5,"MEAN_MOTION_DDOT":0},{"OBJECT_NAME":"T.MICROSAT-1","OBJECT_ID":"2025-276DE","EPOCH":"2026-03-09T18:04:16.042944","MEAN_MOTION":15.19633457,"ECCENTRICITY":0.00017032,"INCLINATION":97.4229,"RA_OF_ASC_NODE":144.0903,"ARG_OF_PERICENTER":122.7735,"MEAN_ANOMALY":237.3665,"EPHEMERIS_TYPE":0,"CLASSIFICATION_TYPE":"U","NORAD_CAT_ID":66766,"ELEMENT_SET_NO":999,"REV_AT_EPOCH":1533,"BSTAR":0.00037369348,"MEAN_MOTION_DOT":7.899e-5,"MEAN_MOTION_DDOT":0}]
